CCSDS_OMM_VERS = 2.0
CREATION_DATE  = 
ORIGINATOR     = 

OBJECT_NAME    = CYGNUS NG-23
OBJECT_ID      = 2025-208A
CENTER_NAME    = EARTH
REF_FRAME      = TEME
TIME_SYSTEM    = UTC
MEAN_ELEMENT_THEORY = SGP/SGP4

EPOCH          = 2025-12-31T18:12:28.222272
MEAN_MOTION    = 15.48982944
ECCENTRICITY   = .00075274
INCLINATION    = 51.6330
RA_OF_ASC_NODE = 48.2919
ARG_OF_PERICENTER = 325.0386
MEAN_ANOMALY   = 35.0108

EPHEMERIS_TYPE = 0
CLASSIFICATION_TYPE = U
NORAD_CAT_ID   = 65616
ELEMENT_SET_NO = 999
REV_AT_EPOCH   = 22
BSTAR          = .28222753E-3
MEAN_MOTION_DOT = .15131E-3
MEAN_MOTION_DDOT = 0

CCSDS_OMM_VERS = 2.0
CREATION_DATE  = 
ORIGINATOR     = 

OBJECT_NAME    = DRAGONFLY
OBJECT_ID      = 1998-067XH
CENTER_NAME    = EARTH
REF_FRAME      = TEME
TIME_SYSTEM    = UTC
MEAN_ELEMENT_THEORY = SGP/SGP4

EPOCH          = 2025-12-31T09:20:47.171040
MEAN_MOTION    = 15.79537567
ECCENTRICITY   = .00087551
INCLINATION    = 51.6248
RA_OF_ASC_NODE = 39.7890
ARG_OF_PERICENTER = 26.0214
MEAN_ANOMALY   = 334.1226

EPHEMERIS_TYPE = 0
CLASSIFICATION_TYPE = U
NORAD_CAT_ID   = 65729
ELEMENT_SET_NO = 999
REV_AT_EPOCH   = 1610
BSTAR          = .16556772E-2
MEAN_MOTION_DOT = .319553E-2
MEAN_MOTION_DDOT = 0

CCSDS_OMM_VERS = 2.0
CREATION_DATE  = 
ORIGINATOR     = 

OBJECT_NAME    = 1998-067XK
OBJECT_ID      = 1998-067XK
CENTER_NAME    = EARTH
REF_FRAME      = TEME
TIME_SYSTEM    = UTC
MEAN_ELEMENT_THEORY = SGP/SGP4

EPOCH          = 2025-12-31T08:22:53.261184
MEAN_MOTION    = 15.69782489
ECCENTRICITY   = .00052581
INCLINATION    = 51.6292
RA_OF_ASC_NODE = 42.5594
ARG_OF_PERICENTER = 0.6841
MEAN_ANOMALY   = 359.4162

EPHEMERIS_TYPE = 0
CLASSIFICATION_TYPE = U
NORAD_CAT_ID   = 65731
ELEMENT_SET_NO = 999
REV_AT_EPOCH   = 1606
BSTAR          = .12005982E-2
MEAN_MOTION_DOT = .148249E-2
MEAN_MOTION_DDOT = 0

CCSDS_OMM_VERS = 2.0
CREATION_DATE  = 
ORIGINATOR     = 

OBJECT_NAME    = RSP-03
OBJECT_ID      = 1998-067XL
CENTER_NAME    = EARTH
REF_FRAME      = TEME
TIME_SYSTEM    = UTC
MEAN_ELEMENT_THEORY = SGP/SGP4

EPOCH          = 2025-12-31T12:04:15.569472
MEAN_MOTION    = 15.74188922
ECCENTRICITY   = .0006366
INCLINATION    = 51.6266
RA_OF_ASC_NODE = 40.5662
ARG_OF_PERICENTER = 8.0216
MEAN_ANOMALY   = 352.0884

EPHEMERIS_TYPE = 0
CLASSIFICATION_TYPE = U
NORAD_CAT_ID   = 65732
ELEMENT_SET_NO = 999
REV_AT_EPOCH   = 1611
BSTAR          = .14156699E-2
MEAN_MOTION_DOT = .212547E-2
MEAN_MOTION_DDOT = 0

CCSDS_OMM_VERS = 2.0
CREATION_DATE  = 
ORIGINATOR     = 

OBJECT_NAME    = GHS-01
OBJECT_ID      = 1998-067XM
CENTER_NAME    = EARTH
REF_FRAME      = TEME
TIME_SYSTEM    = UTC
MEAN_ELEMENT_THEORY = SGP/SGP4

EPOCH          = 2025-12-31T11:36:25.105824
MEAN_MOTION    = 15.85182050
ECCENTRICITY   = .00097359
INCLINATION    = 51.6279
RA_OF_ASC_NODE = 38.1728
ARG_OF_PERICENTER = 30.7902
MEAN_ANOMALY   = 329.3671

EPHEMERIS_TYPE = 0
CLASSIFICATION_TYPE = U
NORAD_CAT_ID   = 65733
ELEMENT_SET_NO = 999
REV_AT_EPOCH   = 1614
BSTAR          = .17623853E-2
MEAN_MOTION_DOT = .449903E-2
MEAN_MOTION_DDOT = 0

CCSDS_OMM_VERS = 2.0
CREATION_DATE  = 
ORIGINATOR     = 

OBJECT_NAME    = YOTSUBA-KULOVER
OBJECT_ID      = 1998-067XN
CENTER_NAME    = EARTH
REF_FRAME      = TEME
TIME_SYSTEM    = UTC
MEAN_ELEMENT_THEORY = SGP/SGP4

EPOCH          = 2025-12-31T22:06:24.002496
MEAN_MOTION    = 15.62345056
ECCENTRICITY   = .00033582
INCLINATION    = 51.6299
RA_OF_ASC_NODE = 43.3820
ARG_OF_PERICENTER = 33.7491
MEAN_ANOMALY   = 326.3716

EPHEMERIS_TYPE = 0
CLASSIFICATION_TYPE = U
NORAD_CAT_ID   = 65941
ELEMENT_SET_NO = 999
REV_AT_EPOCH   = 1285
BSTAR          = .11626479E-2
MEAN_MOTION_DOT = .105776E-2
MEAN_MOTION_DDOT = 0

CCSDS_OMM_VERS = 2.0
CREATION_DATE  = 
ORIGINATOR     = 

OBJECT_NAME    = BOTAN
OBJECT_ID      = 1998-067XP
CENTER_NAME    = EARTH
REF_FRAME      = TEME
TIME_SYSTEM    = UTC
MEAN_ELEMENT_THEORY = SGP/SGP4

EPOCH          = 2025-12-31T08:46:03.575424
MEAN_MOTION    = 15.67314606
ECCENTRICITY   = .00041799
INCLINATION    = 51.6280
RA_OF_ASC_NODE = 44.9156
ARG_OF_PERICENTER = 19.0341
MEAN_ANOMALY   = 341.0810

EPHEMERIS_TYPE = 0
CLASSIFICATION_TYPE = U
NORAD_CAT_ID   = 65942
ELEMENT_SET_NO = 999
REV_AT_EPOCH   = 1278
BSTAR          = .14670178E-2
MEAN_MOTION_DOT = .164057E-2
MEAN_MOTION_DDOT = 0

CCSDS_OMM_VERS = 2.0
CREATION_DATE  = 
ORIGINATOR     = 

OBJECT_NAME    = E-KAGAKU-1
OBJECT_ID      = 1998-067XQ
CENTER_NAME    = EARTH
REF_FRAME      = TEME
TIME_SYSTEM    = UTC
MEAN_ELEMENT_THEORY = SGP/SGP4

EPOCH          = 2025-12-31T09:49:29.466048
MEAN_MOTION    = 15.62302585
ECCENTRICITY   = .00021264
INCLINATION    = 51.6389
RA_OF_ASC_NODE = 45.9720
ARG_OF_PERICENTER = 46.3499
MEAN_ANOMALY   = 313.7671

EPHEMERIS_TYPE = 0
CLASSIFICATION_TYPE = U
NORAD_CAT_ID   = 65943
ELEMENT_SET_NO = 999
REV_AT_EPOCH   = 1277
BSTAR          = .10914141E-2
MEAN_MOTION_DOT = .99002E-3
MEAN_MOTION_DDOT = 0

CCSDS_OMM_VERS = 2.0
CREATION_DATE  = 
ORIGINATOR     = 

OBJECT_NAME    = HRC MONOBLOCK CAMERA
OBJECT_ID      = 1998-067XR
CENTER_NAME    = EARTH
REF_FRAME      = TEME
TIME_SYSTEM    = UTC
MEAN_ELEMENT_THEORY = SGP/SGP4

EPOCH          = 2025-12-31T14:41:23.865792
MEAN_MOTION    = 15.55551987
ECCENTRICITY   = .00015785
INCLINATION    = 51.6310
RA_OF_ASC_NODE = 47.3149
ARG_OF_PERICENTER = 285.7460
MEAN_ANOMALY   = 74.3357

EPHEMERIS_TYPE = 0
CLASSIFICATION_TYPE = U
NORAD_CAT_ID   = 66052
ELEMENT_SET_NO = 999
REV_AT_EPOCH   = 1177
BSTAR          = .68398226E-3
MEAN_MOTION_DOT = .47503E-3
MEAN_MOTION_DDOT = 0

CCSDS_OMM_VERS = 2.0
CREATION_DATE  = 
ORIGINATOR     = 

OBJECT_NAME    = HTV-X1
OBJECT_ID      = 2025-241A
CENTER_NAME    = EARTH
REF_FRAME      = TEME
TIME_SYSTEM    = UTC
MEAN_ELEMENT_THEORY = SGP/SGP4

EPOCH          = 2025-12-31T18:12:28.222272
MEAN_MOTION    = 15.48982944
ECCENTRICITY   = .00075274
INCLINATION    = 51.6330
RA_OF_ASC_NODE = 48.2919
ARG_OF_PERICENTER = 325.0386
MEAN_ANOMALY   = 35.0108

EPHEMERIS_TYPE = 0
CLASSIFICATION_TYPE = U
NORAD_CAT_ID   = 66174
ELEMENT_SET_NO = 999
REV_AT_EPOCH   = 51
BSTAR          = .28222753E-3
MEAN_MOTION_DOT = .15131E-3
MEAN_MOTION_DDOT = 0

CCSDS_OMM_VERS = 2.0
CREATION_DATE  = 
ORIGINATOR     = 

OBJECT_NAME    = SZ-21 MODULE
OBJECT_ID      = 2025-246C
CENTER_NAME    = EARTH
REF_FRAME      = TEME
TIME_SYSTEM    = UTC
MEAN_ELEMENT_THEORY = SGP/SGP4

EPOCH          = 2025-12-31T01:40:01.124544
MEAN_MOTION    = 15.63556813
ECCENTRICITY   = .0003033
INCLINATION    = 41.4763
RA_OF_ASC_NODE = 264.1497
ARG_OF_PERICENTER = 3.4177
MEAN_ANOMALY   = 356.6683

EPHEMERIS_TYPE = 0
CLASSIFICATION_TYPE = U
NORAD_CAT_ID   = 66515
ELEMENT_SET_NO = 999
REV_AT_EPOCH   = 731
BSTAR          = .42604371E-3
MEAN_MOTION_DOT = .40549E-3
MEAN_MOTION_DDOT = 0

CCSDS_OMM_VERS = 2.0
CREATION_DATE  = 
ORIGINATOR     = 

OBJECT_NAME    = SHENZHOU-22
OBJECT_ID      = 2025-272A
CENTER_NAME    = EARTH
REF_FRAME      = TEME
TIME_SYSTEM    = UTC
MEAN_ELEMENT_THEORY = SGP/SGP4

EPOCH          = 2025-12-31T22:13:01.069248
MEAN_MOTION    = 15.59983725
ECCENTRICITY   = .00099362
INCLINATION    = 41.4667
RA_OF_ASC_NODE = 260.1626
ARG_OF_PERICENTER = 193.3044
MEAN_ANOMALY   = 166.7534

EPHEMERIS_TYPE = 0
CLASSIFICATION_TYPE = U
NORAD_CAT_ID   = 66645
ELEMENT_SET_NO = 999
REV_AT_EPOCH   = 26699
BSTAR          = .30103624E-3
MEAN_MOTION_DOT = .24817E-3
MEAN_MOTION_DDOT = 0

